{"spkid": "50719497", "covariance": {"elements": [{"units": null, "title": "eccentricity", "value": ".1781623397796924", "sigma": 1.07057945962285e-06, "name": "e", "label": "e"}, {"title": "perihelion distance", "value": ".9100553161497377", "units": "au", "name": "q", "sigma": 1.18811712162405e-06, "label": "q"}, {"title": "time of perihelion passage", "value": "2457791.823849255694", "units": "TDB", "sigma": 9.97667930715538e-05, "name": "tp", "label": "tp"}, {"sigma": 0.000254361586629938, "name": "om", "value": "123.1010107984472", "title": "longitude of the ascending node", "units": "deg", "label": "node"}, {"title": "argument of perihelion", "value": "283.7863745546392", "units": "deg", "sigma": 0.000262033173231865, "name": "w", "label": "peri"}, {"label": "i", "units": "deg", "title": "inclination", "value": "3.748286134655856", "name": "i", "sigma": 1.30711664256698e-05}], "data": [["1.146140379366355E-12", "-1.271968184096303E-12", "3.806472821505112E-11", "-2.055579048888021E-11", "3.746439704046348E-11", "1.212522286257076E-11"], ["-1.271968184096303E-12", "1.411622294696206E-12", "-4.223570391564999E-11", "2.282200390514537E-11", "-4.158017043616693E-11", "-1.345720115095314E-11"], ["3.806472821505112E-11", "-4.223570391564999E-11", "9.953412999782232E-9", "-8.849786978712387E-10", "6.631088360727968E-9", "4.121117836993028E-10"], ["-2.055579048888021E-11", "2.282200390514537E-11", "-8.849786978712387E-10", "6.469981675289969E-8", "-6.500028185199311E-8", "-1.488444202331384E-9"], ["3.746439704046348E-11", "-4.158017043616693E-11", "6.631088360727968E-9", "-6.500028185199311E-8", "6.866138387396064E-8", "1.669924076963128E-9"], ["1.212522286257076E-11", "-1.345720115095314E-11", "4.121117836993028E-10", "-1.488444202331384E-9", "1.669924076963128E-9", "1.708553917275577E-10"]], "labels": ["e", "q", "tp", "node", "peri", "i"], "epoch": "2457804.5"}, "elements": [{"name": "e", "sigma": "1.0703E-6", "title": "eccentricity", "value": ".1780682591158321", "units": null, "label": "e"}, {"name": "a", "sigma": "5.4062E-9", "units": "au", "value": "1.107327781449646", "title": "semi-major axis", "label": "a"}, {"units": "au", "title": "perihelion distance", "value": ".9101478511363108", "sigma": "1.188E-6", "name": "q", "label": "q"}, {"title": "inclination; angle with respect to x-y ecliptic plane", "value": "3.749198205384816", "units": "deg", "name": "i", "sigma": "1.3073E-5", "label": "i"}, {"label": "node", "sigma": ".00025429", "name": "om", "units": "deg", "value": "123.0628879191105", "title": "longitude of the ascending node"}, {"sigma": ".00026205", "name": "w", "value": "283.875538939902", "title": "argument of perihelion", "units": "deg", "label": "peri"}, {"label": "M", "sigma": "8.1229E-5", "name": "ma", "title": "mean anomaly", "value": "3.162197477708176", "units": "deg"}, {"name": "tp", "sigma": "9.6037E-5", "units": "TDB", "title": "time of perihelion passage", "value": "2461196.761484307453", "label": "tp"}, {"units": "d", "title": "sidereal orbital period", "value": "425.6108793978584", "sigma": "3.1169E-6", "name": "per", "label": "period"}, {"value": ".8458430397956868", "title": "mean motion", "units": "deg/d", "sigma": "6.1944E-9", "name": "n", "label": "n"}, {"label": "Q", "name": "ad", "sigma": "6.3689E-9", "units": "au", "value": "1.304507711762981", "title": "aphelion distance"}], "epoch": "2461200.5"}